[{"OBJECT_NAME":"OMNI-L2","OBJECT_ID":"2022-057AR","EPOCH":"2026-03-09T18:02:52.792224","MEAN_MOTION":14.8107523,"ECCENTRICITY":0.00052733,"INCLINATION":97.481,"RA_OF_ASC_NODE":137.7671,"ARG_OF_PERICENTER":294.5494,"MEAN_ANOMALY":65.517,"EPHEMERIS_TYPE":0,"CLASSIFICATION_TYPE":"U","NORAD_CAT_ID":52771,"ELEMENT_SET_NO":999,"REV_AT_EPOCH":20567,"BSTAR":0.00027609772,"MEAN_MOTION_DOT":2.095e-5,"MEAN_MOTION_DDOT":0},{"OBJECT_NAME":"YAOGAN-4 DEB","OBJECT_ID":"2008-061B","EPOCH":"2026-03-09T15:56:35.155392","MEAN_MOTION":14.33860318,"ECCENTRICITY":0.02111803,"INCLINATION":97.7405,"RA_OF_ASC_NODE":223.3323,"ARG_OF_PERICENTER":123.0916,"MEAN_ANOMALY":239.0741,"EPHEMERIS_TYPE":0,"CLASSIFICATION_TYPE":"U","NORAD_CAT_ID":35575,"ELEMENT_SET_NO":999,"REV_AT_EPOCH":89323,"BSTAR":0.0010905247,"MEAN_MOTION_DOT":3.86e-5,"MEAN_MOTION_DDOT":0}]
